[{"OBJECT_NAME":"STARLINK-36497","OBJECT_ID":"2026-002U","EPOCH":"2026-03-09T23:35:45.600288","MEAN_MOTION":15.27603135,"ECCENTRICITY":0.00012994,"INCLINATION":42.9996,"RA_OF_ASC_NODE":323.6163,"ARG_OF_PERICENTER":250.9128,"MEAN_ANOMALY":109.1583,"EPHEMERIS_TYPE":0,"CLASSIFICATION_TYPE":"U","NORAD_CAT_ID":67323,"ELEMENT_SET_NO":999,"REV_AT_EPOCH":1118,"BSTAR":0.0013495818,"MEAN_MOTION_DOT":0.00037089,"MEAN_MOTION_DDOT":0},{"OBJECT_NAME":"ELECTRON KICK STAGE R\/B","OBJECT_ID":"2022-147B","EPOCH":"2026-03-09T22:28:20.187264","MEAN_MOTION":15.28920172,"ECCENTRICITY":0.00095089,"INCLINATION":97.642,"RA_OF_ASC_NODE":85.1135,"ARG_OF_PERICENTER":110.4683,"MEAN_ANOMALY":249.7578,"EPHEMERIS_TYPE":0,"CLASSIFICATION_TYPE":"U","NORAD_CAT_ID":54228,"ELEMENT_SET_NO":999,"REV_AT_EPOCH":18390,"BSTAR":0.00083201931,"MEAN_MOTION_DOT":0.00023374,"MEAN_MOTION_DDOT":0}]
